[{"OBJECT_NAME":"STARLINK-4366","OBJECT_ID":"2022-084AQ","EPOCH":"2026-03-09T17:57:39.476448","MEAN_MOTION":15.05648965,"ECCENTRICITY":0.00013136,"INCLINATION":97.6028,"RA_OF_ASC_NODE":131.2499,"ARG_OF_PERICENTER":87.4887,"MEAN_ANOMALY":272.649,"EPHEMERIS_TYPE":0,"CLASSIFICATION_TYPE":"U","NORAD_CAT_ID":53227,"ELEMENT_SET_NO":999,"REV_AT_EPOCH":19939,"BSTAR":-9.8133538e-5,"MEAN_MOTION_DOT":-1.476e-5,"MEAN_MOTION_DDOT":0},{"OBJECT_NAME":"DELTA 1 DEB","OBJECT_ID":"1972-058EG","EPOCH":"2026-03-09T15:29:57.375744","MEAN_MOTION":14.93143945,"ECCENTRICITY":0.0071537,"INCLINATION":98.4418,"RA_OF_ASC_NODE":299.7647,"ARG_OF_PERICENTER":185.1751,"MEAN_ANOMALY":174.8735,"EPHEMERIS_TYPE":0,"CLASSIFICATION_TYPE":"U","NORAD_CAT_ID":8314,"ELEMENT_SET_NO":999,"REV_AT_EPOCH":83297,"BSTAR":0.00043799,"MEAN_MOTION_DOT":4.734e-5,"MEAN_MOTION_DDOT":0}]
